,SEARCHVAL,BLK_NO,ROAD_NAME,BUILDING,ADDRESS,POSTAL,X,Y,LATITUDE,LONGITUDE,LONGTITUDE,address
0,MARKET & HAWKER CENTRE (BLKS 20/21 MARSILING LANE),21,MARSILING LANE,MARKET & HAWKER CENTRE (BLKS 20/21 MARSILING LANE),21 MARSILING LANE MARKET & HAWKER CENTRE (BLKS 20/21 MARSILING LANE) SINGAPORE 730021,730021,21756.0331105599,47277.1630374882,1.44383165244262,103.777210383669,103.777210383669,730021
1,MARSILING LANE MARKET & COOKED FOOD CENTRE,21,MARSILING LANE,MARSILING LANE MARKET & COOKED FOOD CENTRE,21 MARSILING LANE MARSILING LANE MARKET & COOKED FOOD CENTRE SINGAPORE 730021,730021,21755.0976179875,47287.4829670731,1.44392498188688,103.77720197506,103.77720197506,730021
0,DBS TELOK BLANGAH RISE,36,TELOK BLANGAH RISE,DBS TELOK BLANGAH RISE,36 TELOK BLANGAH RISE DBS TELOK BLANGAH RISE SINGAPORE 090036,090036,26743.489736801,28343.9435181376,1.27260703348585,103.822028389533,103.822028389533,090036
1,TELOK BLANGAH RISE MARKET,36,TELOK BLANGAH RISE,TELOK BLANGAH RISE MARKET,36 TELOK BLANGAH RISE TELOK BLANGAH RISE MARKET SINGAPORE 090036,090036,26780.7896995675,28360.9997691065,1.27276128570286,103.822363542256,103.822363542256,090036
0,DBS CLEMENTI WEST STREET 2,726,CLEMENTI WEST STREET 2,DBS CLEMENTI WEST STREET 2,726 CLEMENTI WEST STREET 2 DBS CLEMENTI WEST STREET 2 SINGAPORE 120726,120726,20314.9093901506,31791.2166986521,1.30378203325462,103.764264494666,103.764264494666,120726
1,MARKET & HAWKER CENTRE (BLK 726 CLEMENTI WEST STREET 2),726,CLEMENTI WEST STREET 2,MARKET & HAWKER CENTRE (BLK 726 CLEMENTI WEST STREET 2),726 CLEMENTI WEST STREET 2 MARKET & HAWKER CENTRE (BLK 726 CLEMENTI WEST STREET 2) SINGAPORE 120726,120726,20313.3796462538,31794.3900848683,1.30381073184127,103.764250748436,103.764250748436,120726
0,BLK 210 LORONG 8 TOA PAYOH MARKET & FOOD CENTRE,210,LORONG 8 TOA PAYOH,BLK 210 LORONG 8 TOA PAYOH MARKET & FOOD CENTRE,210 LORONG 8 TOA PAYOH BLK 210 LORONG 8 TOA PAYOH MARKET & FOOD CENTRE SINGAPORE 310210,310210,30398.7267572442,35819.8037894741,1.34021600857625,103.85487256444,103.85487256444,310210
1,MARKET & HAWKER CENTRE (BLK 210 TOA PAYOH LORONG 8 ),210,LORONG 8 TOA PAYOH,MARKET & HAWKER CENTRE (BLK 210 TOA PAYOH LORONG 8 ),210 LORONG 8 TOA PAYOH MARKET & HAWKER CENTRE (BLK 210 TOA PAYOH LORONG 8 ) SINGAPORE 310210,310210,30338.771753489,35823.7928675842,1.34025208908831,103.854333833433,103.854333833433,310210
2,MARKET & HAWKER CENTRE (BLK 210 TOA PAYOH LORONG 8),210,LORONG 8 TOA PAYOH,MARKET & HAWKER CENTRE (BLK 210 TOA PAYOH LORONG 8),210 LORONG 8 TOA PAYOH MARKET & HAWKER CENTRE (BLK 210 TOA PAYOH LORONG 8) SINGAPORE 310210,310210,30345.6633798974,35824.7833570838,1.3402610461881,103.854395758866,103.854395758866,310210
0,COMMONWEALTH CRESCENT MARKET,31,COMMONWEALTH CRESCENT,COMMONWEALTH CRESCENT MARKET,31 COMMONWEALTH CRESCENT COMMONWEALTH CRESCENT MARKET SINGAPORE 149644,149644,24332.8247768823,32135.9186672661,1.30690013206335,103.800367271218,103.800367271218,149644
1,DBS COMMONWEALTH CRESCENT MARKET,31,COMMONWEALTH CRESCENT,DBS COMMONWEALTH CRESCENT MARKET,31 COMMONWEALTH CRESCENT DBS COMMONWEALTH CRESCENT MARKET SINGAPORE 149644,149644,24340.0894864583,32155.231093742,1.30707478767354,103.800432545798,103.800432545798,149644
0,KIM KEAT PALM MARKET AND FOOD CENTRE,22,LORONG 7 TOA PAYOH,KIM KEAT PALM MARKET AND FOOD CENTRE,22 LORONG 7 TOA PAYOH KIM KEAT PALM MARKET AND FOOD CENTRE SINGAPORE 310022,310022,30635.9054063978,35285.3538286239,1.33538261333779,103.857003709119,103.857003709119,310022
0,TOA PAYOH VISTA MARKET,74,LORONG 4 TOA PAYOH,TOA PAYOH VISTA MARKET,74 LORONG 4 TOA PAYOH TOA PAYOH VISTA MARKET SINGAPORE 310074,310074,30079.4365165029,35193.365703145,1.3345507487214,103.852003509176,103.852003509176,310074
0,MARKET & HAWKER CENTRE (BLK 115 BUKIT MERAH VIEW),115,BUKIT MERAH VIEW,MARKET & HAWKER CENTRE (BLK 115 BUKIT MERAH VIEW),115 BUKIT MERAH VIEW MARKET & HAWKER CENTRE (BLK 115 BUKIT MERAH VIEW) SINGAPORE 151115,151115,26720.6663755551,29770.0739020091,1.28550445567433,103.821823256087,103.821823256087,151115
0,WHAMPOA DRIVE MAKAN PLACE,90,WHAMPOA DRIVE,WHAMPOA DRIVE MAKAN PLACE,90 WHAMPOA DRIVE WHAMPOA DRIVE MAKAN PLACE SINGAPORE 320090,320090,30412.5008993987,33923.326282192,1.32306493801159,103.854996183556,103.854996183556,320090
0,TANGLIN HALT FOOD CENTRE,3A,COMMONWEALTH DRIVE,TANGLIN HALT FOOD CENTRE,3A COMMONWEALTH DRIVE TANGLIN HALT FOOD CENTRE SINGAPORE 141003,141003,24076.6793010924,31328.7241775505,1.29960011932959,103.798065784505,103.798065784505,141003
0,MARKET & HAWKER CENTRE (BLK 117 ALJUNIED AVE 2),117,ALJUNIED AVENUE 2,MARKET & HAWKER CENTRE (BLK 117 ALJUNIED AVE 2),117 ALJUNIED AVENUE 2 MARKET & HAWKER CENTRE (BLK 117 ALJUNIED AVE 2) SINGAPORE 380117,380117,33976.8991302401,33655.9472074602,1.32064636781982,103.88702414,103.88702414,380117
0,MARKET & HAWKER CENTRE (BLK 505 JURONG WEST STREET 52),505,JURONG WEST STREET 52,MARKET & HAWKER CENTRE (BLK 505 JURONG WEST STREET 52),505 JURONG WEST STREET 52 MARKET & HAWKER CENTRE (BLK 505 JURONG WEST STREET 52) SINGAPORE 640505,640505,15215.6998569388,36864.06396823,1.34965729130746,103.718443677825,103.718443677825,640505
0,32 NEW MARKET ROAD SINGAPORE 050032,32,NEW MARKET ROAD,NIL,32 NEW MARKET ROAD SINGAPORE 050032,050032,29030.582384252,29698.6583802402,1.28485860802646,103.842578771054,103.842578771054,050032
1,OCBC PEOPLES PARK FOOD CENTRE,32,NEW MARKET ROAD,OCBC PEOPLES PARK FOOD CENTRE,32 NEW MARKET ROAD OCBC PEOPLES PARK FOOD CENTRE SINGAPORE 050032,050032,29022.6754183294,29699.8960986286,1.28486980177486,103.842507723868,103.842507723868,050032
2,PEOPLE'S PARK FOOD CENTRE,32,NEW MARKET ROAD,PEOPLE'S PARK FOOD CENTRE,32 NEW MARKET ROAD PEOPLE'S PARK FOOD CENTRE SINGAPORE 050032,050032,29029.3480861438,29712.0183655731,1.28497943108466,103.84256768083,103.84256768083,050032
3,DBS PEOPLE'S PARK COMPLEX FOOD CENTRE,32,NEW MARKET ROAD,DBS PEOPLE'S PARK COMPLEX FOOD CENTRE,32 NEW MARKET ROAD DBS PEOPLE'S PARK COMPLEX FOOD CENTRE SINGAPORE 050032,050032,29032.9361134693,29698.3572138008,1.2848558843058,103.842599920236,103.842599920236,050032
4,UOB PEOPLE'S PARK COMPLEX FOOD CENTRE,32,NEW MARKET ROAD,UOB PEOPLE'S PARK COMPLEX FOOD CENTRE,32 NEW MARKET ROAD UOB PEOPLE'S PARK COMPLEX FOOD CENTRE SINGAPORE 050032,050032,29030.58241452,29698.6584105082,1.2848586083002,103.842578771326,103.842578771326,050032
0,ADAM FOOD CENTRE,2,ADAM ROAD,ADAM FOOD CENTRE,2 ADAM ROAD ADAM FOOD CENTRE SINGAPORE 289876,289876,25868.5017133188,34044.3940400798,1.32415985259558,103.814165924136,103.814165924136,289876
1,ADAM ROAD FOOD CENTRE,2,ADAM ROAD,ADAM ROAD FOOD CENTRE,2 ADAM ROAD ADAM ROAD FOOD CENTRE SINGAPORE 289876,289876,25870.3018411137,34035.8644314632,1.3240827139625,103.814182099841,103.814182099841,289876
0,WHAMPOA DRIVE MAKAN PLACE,92,WHAMPOA DRIVE,WHAMPOA DRIVE MAKAN PLACE,92 WHAMPOA DRIVE WHAMPOA DRIVE MAKAN PLACE SINGAPORE 320092,320092,30286.4341721246,33935.6109671351,1.3231760460434,103.853863407885,103.853863407885,320092
0,MARKET & HAWKER CENTRE (BLK 6 TANJONG PAGAR PLAZA),6,TANJONG PAGAR PLAZA,MARKET & HAWKER CENTRE (BLK 6 TANJONG PAGAR PLAZA),6 TANJONG PAGAR PLAZA MARKET & HAWKER CENTRE (BLK 6 TANJONG PAGAR PLAZA) SINGAPORE 081006,081006,29096.0534556275,28787.0840827785,1.27661464758769,103.843167023188,103.843167023188,081006
1,TANJONG PAGAR PLAZA,6,TANJONG PAGAR PLAZA,TANJONG PAGAR PLAZA,6 TANJONG PAGAR PLAZA TANJONG PAGAR PLAZA SINGAPORE 081006,081006,29095.4557840209,28786.9805360064,1.27661371116765,103.843161652885,103.843161652885,081006
0,ALEXANDRA VILLAGE FOOD CENTRE,120,BUKIT MERAH LANE 1,ALEXANDRA VILLAGE FOOD CENTRE,120 BUKIT MERAH LANE 1 ALEXANDRA VILLAGE FOOD CENTRE SINGAPORE 150120,150120,24791.9139356269,29858.7134501822,1.28630594274136,103.804492637648,103.804492637648,150120
0,KOVAN HOUGANG MARKET AND FOOD CENTRE,209,HOUGANG STREET 21,KOVAN HOUGANG MARKET AND FOOD CENTRE,209 HOUGANG STREET 21 KOVAN HOUGANG MARKET AND FOOD CENTRE SINGAPORE 530209,530209,33868.9928905163,37906.1657976005,1.35908384091048,103.886055368064,103.886055368064,530209
0,MARINE PARADE CENTRAL MARKET AND FOOD CENTRE,84,MARINE PARADE CENTRAL,MARINE PARADE CENTRAL MARKET AND FOOD CENTRE,84 MARINE PARADE CENTRAL MARINE PARADE CENTRAL MARKET AND FOOD CENTRE SINGAPORE 440084,440084,36126.4677105406,31625.7177199628,1.30228520823379,103.906338595442,103.906338595442,440084
1,MARINE PARADE PROMENADE,84,MARINE PARADE CENTRAL,MARINE PARADE PROMENADE,84 MARINE PARADE CENTRAL MARINE PARADE PROMENADE SINGAPORE 440084,440084,36127.0506719062,31626.9724792279,1.30229655567278,103.906343833939,103.906343833939,440084
0,MAYFLOWER MARKET AND FOOD CENTRE,162,ANG MO KIO AVENUE 4,MAYFLOWER MARKET AND FOOD CENTRE,162 ANG MO KIO AVENUE 4 MAYFLOWER MARKET AND FOOD CENTRE SINGAPORE 560162,560162,28617.1283553625,39567.3499576319,1.3741075702016,103.838863921122,103.838863921122,560162
0,UPPER BOON KENG MARKET AND FOOD CENTRE,17,UPPER BOON KENG ROAD,UPPER BOON KENG MARKET AND FOOD CENTRE,17 UPPER BOON KENG ROAD UPPER BOON KENG MARKET AND FOOD CENTRE SINGAPORE 380017,380017,32262.6259256126,33034.711007081,1.31502841514731,103.87162041674,103.87162041674,380017
0,70 ZION ROAD SINGAPORE 247792,70,ZION ROAD,NIL,70 ZION ROAD SINGAPORE 247792,247792,27738.9920983566,30522.7184023596,1.29231113322494,103.830973312857,103.830973312857,247792
1,ZION RIVERSIDE FOOD CENTRE,70,ZION ROAD,ZION RIVERSIDE FOOD CENTRE,70 ZION ROAD ZION RIVERSIDE FOOD CENTRE SINGAPORE 247792,247792,27762.9988469621,30526.1548476219,1.2923422114207,103.831189023623,103.831189023623,247792
0,MARKET & HAWKER CENTRE (BLK 50A MARINE TERRACE),50A,MARINE TERRACE,MARKET & HAWKER CENTRE (BLK 50A MARINE TERRACE),50A MARINE TERRACE MARKET & HAWKER CENTRE (BLK 50A MARINE TERRACE) SINGAPORE 441050,441050,37172.4173270743,32006.62849053,1.30572973591916,103.915737035334,103.915737035334,441050
0,OCBC NEWTON FOOD CENTRE,500,CLEMENCEAU AVENUE NORTH,OCBC NEWTON FOOD CENTRE,500 CLEMENCEAU AVENUE NORTH OCBC NEWTON FOOD CENTRE SINGAPORE 229495,229495,28722.7867432749,32712.4483595341,1.31211427254136,103.839813174478,103.839813174478,229495
1,NEWTON FOOD CENTRE,500,CLEMENCEAU AVENUE NORTH,NEWTON FOOD CENTRE,500 CLEMENCEAU AVENUE NORTH NEWTON FOOD CENTRE SINGAPORE 229495,229495,28695.6935986374,32690.4712911118,1.31191552031274,103.839569728721,103.839569728721,229495
2,DBS NEWTON FOOD CENTRE,500,CLEMENCEAU AVENUE NORTH,DBS NEWTON FOOD CENTRE,500 CLEMENCEAU AVENUE NORTH DBS NEWTON FOOD CENTRE SINGAPORE 229495,229495,28694.9187987903,32687.9153112266,1.31189240495009,103.839562766706,103.839562766706,229495
0,HONG LIM COMPLEX,531A,UPPER CROSS STREET,HONG LIM COMPLEX,531A UPPER CROSS STREET HONG LIM COMPLEX SINGAPORE 051531,051531,29391.7271323409,29747.3647418655,1.28529907736773,103.845823802043,103.845823802043,051531
1,HONG LIM FOOD CENTRE AND MARKET,531A,UPPER CROSS STREET,HONG LIM FOOD CENTRE AND MARKET,531A UPPER CROSS STREET HONG LIM FOOD CENTRE AND MARKET SINGAPORE 051531,051531,29386.4890156155,29750.0976683833,1.28532379322674,103.845776735598,103.845776735598,051531
0,AYER RAJAH MARKET,502,WEST COAST DRIVE,AYER RAJAH MARKET,502 WEST COAST DRIVE AYER RAJAH MARKET SINGAPORE 120502,120502,19743.2919494975,32689.6467004325,1.31190696353508,103.759128012412,103.759128012412,120502
1,OCBC WEST COAST DRIVE - FAIRPRICE,502,WEST COAST DRIVE,OCBC WEST COAST DRIVE - FAIRPRICE,502 WEST COAST DRIVE OCBC WEST COAST DRIVE - FAIRPRICE SINGAPORE 120502,120502,19743.2918889616,32689.6467004325,1.31190696353507,103.759128011868,103.759128011868,120502
0,AYER RAJAH FOOD CENTRE,503,WEST COAST DRIVE,AYER RAJAH FOOD CENTRE,503 WEST COAST DRIVE AYER RAJAH FOOD CENTRE SINGAPORE 120503,120503,19812.6694068518,32678.1587596238,1.31180308926424,103.759751405542,103.759751405542,120503
0,JALAN BATU HAWKER CENTRE,4A,JALAN BATU,JALAN BATU HAWKER CENTRE,4A JALAN BATU JALAN BATU HAWKER CENTRE SINGAPORE 432004,432004,33630.3082578331,31633.9651401658,1.30236034827101,103.883909473726,103.883909473726,432004
0,MARKET & HAWKER CENTRE (BLK 89 CIRCUIT ROAD),89,CIRCUIT ROAD,MARKET & HAWKER CENTRE (BLK 89 CIRCUIT ROAD),89 CIRCUIT ROAD MARKET & HAWKER CENTRE (BLK 89 CIRCUIT ROAD) SINGAPORE 370089,370089,33800.4642987661,33980.2979524005,1.32357971400582,103.885438842474,103.885438842474,370089
0,MARKET & HAWKER CENTRE (BLK 538 BEDOK NORTH STREET 3),538,BEDOK NORTH STREET 3,MARKET & HAWKER CENTRE (BLK 538 BEDOK NORTH STREET 3),538 BEDOK NORTH STREET 3 MARKET & HAWKER CENTRE (BLK 538 BEDOK NORTH STREET 3) SINGAPORE 460538,460538,38161.0500670448,34918.9363977704,1.3320672771228,103.924621314971,103.924621314971,460538
0,TANGLIN HALT MARKET,48A,TANGLIN HALT ROAD,TANGLIN HALT MARKET,48A TANGLIN HALT ROAD TANGLIN HALT MARKET SINGAPORE 148813,148813,24040.1990861287,31433.1024718955,1.30054407507427,103.797737980247,103.797737980247,148813
0,DBS ANG MO KIO AVENUE 10,409,ANG MO KIO AVENUE 10,DBS ANG MO KIO AVENUE 10,409 ANG MO KIO AVENUE 10 DBS ANG MO KIO AVENUE 10 SINGAPORE 560409,560409,30451.9124475131,38308.3740295526,1.36272174657669,103.855350672118,103.855350672118,560409
1,MARKET & HAWKER CENTRE (BLK 409 ANG MO KIO AVE 10),409,ANG MO KIO AVENUE 10,MARKET & HAWKER CENTRE (BLK 409 ANG MO KIO AVE 10),409 ANG MO KIO AVENUE 10 MARKET & HAWKER CENTRE (BLK 409 ANG MO KIO AVE 10) SINGAPORE 560409,560409,30444.9709697347,38300.8947805073,1.36265410749321,103.855288297631,103.855288297631,560409
0,MEI CHIN ROAD MARKET,159,MEI CHIN ROAD,MEI CHIN ROAD MARKET,159 MEI CHIN ROAD MEI CHIN ROAD MARKET SINGAPORE 140159,140159,24615.1067474168,30625.0326018222,1.29323624443735,103.802903871889,103.802903871889,140159
0,51 OLD AIRPORT ROAD FOOD CENTRE AND SHOPPING MALL,51,OLD AIRPORT ROAD,51 OLD AIRPORT ROAD FOOD CENTRE AND SHOPPING MALL,51 OLD AIRPORT ROAD 51 OLD AIRPORT ROAD FOOD CENTRE AND SHOPPING MALL SINGAPORE 390051,390051,33841.6620816709,32285.4213495106,1.3082518471287,103.88580870609,103.88580870609,390051
1,PCF SPARKLETOTS PRESCHOOL @ MOUNTBATTEN BLK 51 (KN),51,OLD AIRPORT ROAD,PCF SPARKLETOTS PRESCHOOL @ MOUNTBATTEN BLK 51 (KN),51 OLD AIRPORT ROAD PCF SPARKLETOTS PRESCHOOL @ MOUNTBATTEN BLK 51 (KN) SINGAPORE 390051,390051,33833.0903097549,32269.7166850865,1.30810982136012,103.885731681696,103.885731681696,390051
2,UOB OLD AIRPORT ROAD HAWKER CENTRE,51,OLD AIRPORT ROAD,UOB OLD AIRPORT ROAD HAWKER CENTRE,51 OLD AIRPORT ROAD UOB OLD AIRPORT ROAD HAWKER CENTRE SINGAPORE 390051,390051,33844.3987916866,32285.3915960826,1.30825157753166,103.885833296725,103.885833296725,390051
0,163 BUKIT MERAH CENTRAL SINGAPORE 150163,163,BUKIT MERAH CENTRAL,NIL,163 BUKIT MERAH CENTRAL SINGAPORE 150163,150163,26177.1487926776,29590.5865443759,1.28388120820457,103.816939544137,103.816939544137,150163
1,BUKIT MERAH CENTRAL FOOD CENTRE,163,BUKIT MERAH CENTRAL,BUKIT MERAH CENTRAL FOOD CENTRE,163 BUKIT MERAH CENTRAL BUKIT MERAH CENTRAL FOOD CENTRE SINGAPORE 150163,150163,26178.2691923622,29570.793795269,1.28370220959751,103.816949612508,103.816949612508,150163
2,SINGHEALTH POLYCLINICS (BUKIT MERAH POLYCLINIC),163,BUKIT MERAH CENTRAL,SINGHEALTH POLYCLINICS (BUKIT MERAH POLYCLINIC),163 BUKIT MERAH CENTRAL SINGHEALTH POLYCLINICS (BUKIT MERAH POLYCLINIC) SINGAPORE 150163,150163,26189.6109690769,29570.9288207442,1.28370343137554,103.817051522816,103.817051522816,150163
0,KALLANG ESTATE FRESH MARKET AND FOOD CENTRE,17,OLD AIRPORT ROAD,KALLANG ESTATE FRESH MARKET AND FOOD CENTRE,17 OLD AIRPORT ROAD KALLANG ESTATE FRESH MARKET AND FOOD CENTRE SINGAPORE 397972,397972,33642.3416882437,32185.0303474627,1.30734398370473,103.884017699319,103.884017699319,397972
0,KEBUN BARU FOOD CENTRE,226H,ANG MO KIO STREET 22,KEBUN BARU FOOD CENTRE,226H ANG MO KIO STREET 22 KEBUN BARU FOOD CENTRE SINGAPORE 568226,568226,28761.1168768676,38801.1956454292,1.36717874094695,103.840157741978,103.840157741978,568226
1,KEBUN BARU MALL,226H,ANG MO KIO STREET 22,KEBUN BARU MALL,226H ANG MO KIO STREET 22 KEBUN BARU MALL SINGAPORE 568226,568226,28746.0353394244,38803.1634578556,1.3671965375238,103.840022223951,103.840022223951,568226
0,BOON LAY PLACE MARKET AND FOOD VILLAGE,221B,BOON LAY PLACE,BOON LAY PLACE MARKET AND FOOD VILLAGE,221B BOON LAY PLACE BOON LAY PLACE MARKET AND FOOD VILLAGE SINGAPORE 642221,642221,14617.8543003555,36432.8122741096,1.34575695160082,103.713071862125,103.713071862125,642221
0,HOUGANG 105 HAINANESE VILLAGE CENTRE,105,HOUGANG AVENUE 1,HOUGANG 105 HAINANESE VILLAGE CENTRE,105 HOUGANG AVENUE 1 HOUGANG 105 HAINANESE VILLAGE CENTRE SINGAPORE 530105,530105,34322.5106820343,37353.179481376,1.35408273910145,103.890130407955,103.890130407955,530105
0,CHINATOWN COMPLEX,335,SMITH STREET,CHINATOWN COMPLEX,335 SMITH STREET CHINATOWN COMPLEX SINGAPORE 050335,050335,29104.0078514805,29412.9722603802,1.2822749605271,103.843238518071,103.843238518071,050335
1,CHINATOWN COMPLEX MARKET,335,SMITH STREET,CHINATOWN COMPLEX MARKET,335 SMITH STREET CHINATOWN COMPLEX MARKET SINGAPORE 050335,050335,29097.2327265413,29408.5769859292,1.28223521144332,103.843177640795,103.843177640795,050335
0,PASAR MAKAN @ RESERVOIR,630,BEDOK RESERVOIR ROAD,PASAR MAKAN @ RESERVOIR,630 BEDOK RESERVOIR ROAD PASAR MAKAN @ RESERVOIR SINGAPORE 470630,470630,37000.2427445753,34996.9081766885,1.33277279217212,103.914190840298,103.914190840298,470630
0,MARKET & HAWKER CENTRE (BLK 93 TOA PAYOH LORONG 4),93,LORONG 4 TOA PAYOH,MARKET & HAWKER CENTRE (BLK 93 TOA PAYOH LORONG 4),93 LORONG 4 TOA PAYOH MARKET & HAWKER CENTRE (BLK 93 TOA PAYOH LORONG 4) SINGAPORE 310093,310093,29802.316084696,35627.2537689134,1.33847469611073,103.849513448853,103.849513448853,310093
0,HAWKER CENTRE (BLK 75 TOA PAYOH LORONG 5),75,LORONG 5 TOA PAYOH,HAWKER CENTRE (BLK 75 TOA PAYOH LORONG 5),75 LORONG 5 TOA PAYOH HAWKER CENTRE (BLK 75 TOA PAYOH LORONG 5) SINGAPORE 310075,310075,30185.5474107722,35355.9137047604,1.336020767662,103.852956988062,103.852956988062,310075
0,HAWKER CENTRE (BLKS 79/79A CIRCUIT ROAD),79A,CIRCUIT ROAD,HAWKER CENTRE (BLKS 79/79A CIRCUIT ROAD),79A CIRCUIT ROAD HAWKER CENTRE (BLKS 79/79A CIRCUIT ROAD) SINGAPORE 371079,371079,33742.6925852122,34193.3920339625,1.32550687163075,103.884919772828,103.884919772828,371079
1,DBS CIRCUIT ROAD,79A,CIRCUIT ROAD,DBS CIRCUIT ROAD,79A CIRCUIT ROAD DBS CIRCUIT ROAD SINGAPORE 371079,371079,33738.5435408084,34157.9633590207,1.32518646814146,103.884882484809,103.884882484809,371079
2,UOB CIRCUIT ROAD,79A,CIRCUIT ROAD,UOB CIRCUIT ROAD,79A CIRCUIT ROAD UOB CIRCUIT ROAD SINGAPORE 371079,371079,33739.3372884132,34166.6946129445,1.32526543033124,103.88488961869,103.88488961869,371079
0,CLEMENTI AVE 2 MARKET/COOKED FOOD CENTRE,353,CLEMENTI AVENUE 2,CLEMENTI AVE 2 MARKET/COOKED FOOD CENTRE,353 CLEMENTI AVENUE 2 CLEMENTI AVE 2 MARKET/COOKED FOOD CENTRE SINGAPORE 120353,120353,21042.8925967468,32962.3245489281,1.31437328536733,103.770805494512,103.770805494512,120353
1,MARKET & HAWKER CENTRE (BLK 353 CLEMENTI AVE 2),353,CLEMENTI AVENUE 2,MARKET & HAWKER CENTRE (BLK 353 CLEMENTI AVE 2),353 CLEMENTI AVENUE 2 MARKET & HAWKER CENTRE (BLK 353 CLEMENTI AVE 2) SINGAPORE 120353,120353,21055.5871404577,32962.9760067426,1.31437917978956,103.770919561136,103.770919561136,120353
0,REDHILL FOOD CENTRE,85,REDHILL LANE,REDHILL FOOD CENTRE,85 REDHILL LANE REDHILL FOOD CENTRE SINGAPORE 150085,150085,26329.8044605162,29969.4489291478,1.28730751501552,103.818311195307,103.818311195307,150085
0,DUNMAN FOOD CENTRE,271,ONAN ROAD,DUNMAN FOOD CENTRE,271 ONAN ROAD DUNMAN FOOD CENTRE SINGAPORE 424768,424768,35624.1690376205,32414.3991606534,1.30941788760759,103.901825408227,103.901825408227,424768
0,BUKIT TIMAH MARKET,51,UPPER BUKIT TIMAH ROAD,BUKIT TIMAH MARKET,51 UPPER BUKIT TIMAH ROAD BUKIT TIMAH MARKET SINGAPORE 588215,588215,21621.868910674,35735.4350840729,1.33945242854685,103.776007306701,103.776007306701,588215
0,DBS ANG MO KIO AVENUE 1,341,ANG MO KIO AVENUE 1,DBS ANG MO KIO AVENUE 1,341 ANG MO KIO AVENUE 1 DBS ANG MO KIO AVENUE 1 SINGAPORE 560341,560341,29641.3579089241,38432.59020257,1.36384516921846,103.84806729788,103.84806729788,560341
1,TECK GHEE COURT,341,ANG MO KIO AVENUE 1,TECK GHEE COURT,341 ANG MO KIO AVENUE 1 TECK GHEE COURT SINGAPORE 560341,560341,29660.8184669111,38461.5654407032,1.36410720984459,103.848242165861,103.848242165861,560341
0,MARKET & HAWKER CENTRE (BLK 20 GHIM MOH ROAD),20,GHIM MOH ROAD,MARKET & HAWKER CENTRE (BLK 20 GHIM MOH ROAD),20 GHIM MOH ROAD MARKET & HAWKER CENTRE (BLK 20 GHIM MOH ROAD) SINGAPORE 270020,270020,22982.1009905785,32588.9097050633,1.31099663218896,103.78823030662,103.78823030662,270020
0,CIRCUIT ROAD MARKET AND FOOD CENTRE,80,CIRCUIT ROAD,CIRCUIT ROAD MARKET AND FOOD CENTRE,80 CIRCUIT ROAD CIRCUIT ROAD MARKET AND FOOD CENTRE SINGAPORE 370080,370080,33985.6214248398,34450.7353954762,1.32783414615937,103.887102669236,103.887102669236,370080
0,CHENG SAN MARKET AND COOKED FOOD CENTRE,527,ANG MO KIO AVENUE 10,CHENG SAN MARKET AND COOKED FOOD CENTRE,527 ANG MO KIO AVENUE 10 CHENG SAN MARKET AND COOKED FOOD CENTRE SINGAPORE 560527,560527,30352.5537955873,39419.6893546097,1.37277209302753,103.854457955288,103.854457955288,560527
0,MARKET & HAWKER CENTRE (BLK 4A EUNOS CRESCENT),4A,EUNOS CRESCENT,MARKET & HAWKER CENTRE (BLK 4A EUNOS CRESCENT),4A EUNOS CRESCENT MARKET & HAWKER CENTRE (BLK 4A EUNOS CRESCENT) SINGAPORE 402004,402004,35894.6902620094,33621.1522532944,1.32033126010096,103.904256478426,103.904256478426,402004
0,PEK KIO MARKET & FOOD CENTRE,41A,CAMBRIDGE ROAD,PEK KIO MARKET & FOOD CENTRE,41A CAMBRIDGE ROAD PEK KIO MARKET & FOOD CENTRE SINGAPORE 211041,211041,29882.4041102333,33156.6338657755,1.31613128029458,103.850232935162,103.850232935162,211041
0,MARKET & HAWKER CENTRE (BLK 112 JALAN BUKIT MERAH),112,JALAN BUKIT MERAH,MARKET & HAWKER CENTRE (BLK 112 JALAN BUKIT MERAH),112 JALAN BUKIT MERAH MARKET & HAWKER CENTRE (BLK 112 JALAN BUKIT MERAH) SINGAPORE 160112,160112,27186.9811679078,29161.9488235991,1.28000480135122,103.82601329621,103.82601329621,160112
0,CHONG PANG MARKET & FOOD CENTRE,105,YISHUN RING ROAD,CHONG PANG MARKET & FOOD CENTRE,105 YISHUN RING ROAD CHONG PANG MARKET & FOOD CENTRE SINGAPORE 760105,760105,27420.8372399528,45937.6603494491,1.43171836662838,103.828114256975,103.828114256975,760105
0,BEO CRESCENT MARKET,38A,BEO CRESCENT,BEO CRESCENT MARKET,38A BEO CRESCENT BEO CRESCENT MARKET SINGAPORE 169982,169982,27336.1809281698,30137.891893005,1.28883089150258,103.827353892228,103.827353892228,169982
0,MARKET & HAWKER CENTRE (BLK 11 TELOK BLANGAH CRESCENT),11,TELOK BLANGAH CRESCENT,MARKET & HAWKER CENTRE (BLK 11 TELOK BLANGAH CRESCENT),11 TELOK BLANGAH CRESCENT MARKET & HAWKER CENTRE (BLK 11 TELOK BLANGAH CRESCENT) SINGAPORE 090011,090011,26367.6739153955,28870.403094504,1.27736813225761,103.818651524334,103.818651524334,090011
0,GEYLANG SERAI MARKET,1,GEYLANG SERAI,GEYLANG SERAI MARKET,1 GEYLANG SERAI GEYLANG SERAI MARKET SINGAPORE 402001,402001,35195.9019180359,33222.3878217265,1.31672515005311,103.897977411392,103.897977411392,402001
1,DBS GEYLANG SERAI MARKET AND FOOD CENTRE,1,GEYLANG SERAI,DBS GEYLANG SERAI MARKET AND FOOD CENTRE,1 GEYLANG SERAI DBS GEYLANG SERAI MARKET AND FOOD CENTRE SINGAPORE 402001,402001,35209.8405666817,33217.2692029998,1.31667885583161,103.898102655979,103.898102655979,402001
2,SRI GEYLANG SERAI,1,GEYLANG SERAI,SRI GEYLANG SERAI,1 GEYLANG SERAI SRI GEYLANG SERAI SINGAPORE 402001,402001,35223.7772176405,33223.6268719081,1.31673634902959,103.898227885294,103.898227885294,402001
3,UOB GEYLANG SERAI MARKET,1,GEYLANG SERAI,UOB GEYLANG SERAI MARKET,1 GEYLANG SERAI UOB GEYLANG SERAI MARKET SINGAPORE 402001,402001,35223.7771873726,33223.6269021761,1.31673634930331,103.898227885022,103.898227885022,402001
0,BERSEH FOOD CENTRE,166,JALAN BESAR,BERSEH FOOD CENTRE,166 JALAN BESAR BERSEH FOOD CENTRE SINGAPORE 208877,208877,30623.1448179465,32184.9996254593,1.30734410946371,103.856888783769,103.856888783769,208877
1,DBS BERSEH FOOD CENTRE,166,JALAN BESAR,DBS BERSEH FOOD CENTRE,166 JALAN BESAR DBS BERSEH FOOD CENTRE SINGAPORE 208877,208877,30623.1447876785,32184.9995951913,1.30734410918998,103.856888783497,103.856888783497,208877
0,HAVELOCK ROAD COOKED FOOD CENTRE,22B,HAVELOCK ROAD,HAVELOCK ROAD COOKED FOOD CENTRE,22B HAVELOCK ROAD HAVELOCK ROAD COOKED FOOD CENTRE SINGAPORE 162022,162022,27559.7650151169,30018.9760071523,1.28775546193797,103.829362888759,103.829362888759,162022
0,HAWKER CENTRE (BLK 1 JALAN KUKOH),1,JALAN KUKOH,HAWKER CENTRE (BLK 1 JALAN KUKOH),1 JALAN KUKOH HAWKER CENTRE (BLK 1 JALAN KUKOH) SINGAPORE 161001,161001,28736.2590833632,30071.5608476754,1.2882310152805,103.839934168065,103.839934168065,161001
1,KUKOH 21 FOOD CENTRE,1,JALAN KUKOH,KUKOH 21 FOOD CENTRE,1 JALAN KUKOH KUKOH 21 FOOD CENTRE SINGAPORE 161001,161001,28736.9380850419,30073.8913916182,1.28825209188554,103.839940269227,103.839940269227,161001
0,BEDOK INTERCHANGE HAWKER CENTRE,208B,NEW UPPER CHANGI ROAD,BEDOK INTERCHANGE HAWKER CENTRE,208B NEW UPPER CHANGI ROAD BEDOK INTERCHANGE HAWKER CENTRE SINGAPORE 462208,462208,38820.2487660879,34117.3908521235,1.32481816551889,103.930544296289,103.930544296289,462208
1,HAWKER CENTRE (BLK 208B NEW UPPER CHANGI ROAD),208B,NEW UPPER CHANGI ROAD,HAWKER CENTRE (BLK 208B NEW UPPER CHANGI ROAD),208B NEW UPPER CHANGI ROAD HAWKER CENTRE (BLK 208B NEW UPPER CHANGI ROAD) SINGAPORE 462208,462208,38823.1433841754,34113.4328592326,1.32478236985627,103.930570304559,103.930570304559,462208
0,TELOK BLANGAH MARKET,82,TELOK BLANGAH DRIVE,TELOK BLANGAH MARKET,82 TELOK BLANGAH DRIVE TELOK BLANGAH MARKET SINGAPORE 100082,100082,25171.1488284729,28485.903418839,1.27389076775628,103.807900337544,103.807900337544,100082
1,WEST COAST TOWN COUNCIL (TELOK BLANGAH SERVICE CENTRE),82,TELOK BLANGAH DRIVE,WEST COAST TOWN COUNCIL (TELOK BLANGAH SERVICE CENTRE),82 TELOK BLANGAH DRIVE WEST COAST TOWN COUNCIL (TELOK BLANGAH SERVICE CENTRE) SINGAPORE 100082,100082,25143.4860706497,28462.8493852895,1.27368227268844,103.807651779829,103.807651779829,100082
0,BEDOK FOOD CENTRE,1,BEDOK ROAD,BEDOK FOOD CENTRE,1 BEDOK ROAD BEDOK FOOD CENTRE SINGAPORE 469572,469572,41595.4345044643,33623.132626934,1.32034716834128,103.955480570427,103.955480570427,469572
0,GEYLANG BAHRU MARKET AND FOOD CENTRE,69,GEYLANG BAHRU,GEYLANG BAHRU MARKET AND FOOD CENTRE,69 GEYLANG BAHRU GEYLANG BAHRU MARKET AND FOOD CENTRE SINGAPORE 330069,330069,32082.8367053783,33746.2240114082,1.32146311046779,103.870005014547,103.870005014547,330069
0,KEBUN BARU MALL,226D,ANG MO KIO AVENUE 1,KEBUN BARU MALL,226D ANG MO KIO AVENUE 1 KEBUN BARU MALL SINGAPORE 564226,564226,28649.2204693863,38759.4224984217,1.36680096218071,103.839152274224,103.839152274224,564226
1,KEBUN BARU MARKET AND FOOD CENTRE,226D,ANG MO KIO AVENUE 1,KEBUN BARU MARKET AND FOOD CENTRE,226D ANG MO KIO AVENUE 1 KEBUN BARU MARKET AND FOOD CENTRE SINGAPORE 564226,564226,28648.1391456677,38760.4223709963,1.36681000469504,103.839142557804,103.839142557804,564226
0,MARKET & HAWKER CENTRE (BLK 58 NEW UPPER CHANGI ROAD),58,NEW UPPER CHANGI ROAD,MARKET & HAWKER CENTRE (BLK 58 NEW UPPER CHANGI ROAD),58 NEW UPPER CHANGI ROAD MARKET & HAWKER CENTRE (BLK 58 NEW UPPER CHANGI ROAD) SINGAPORE 461058,461058,39997.8103255853,34049.1824351028,1.32420087334002,103.941125277547,103.941125277547,461058
0,HOLLAND DRIVE MARKET AND FOOD CENTRE,44,HOLLAND DRIVE,HOLLAND DRIVE MARKET AND FOOD CENTRE,44 HOLLAND DRIVE HOLLAND DRIVE MARKET AND FOOD CENTRE SINGAPORE 270044,270044,23487.7404316654,32270.5745402798,1.30811780015992,103.792773769341,103.792773769341,270044
0,HAIG ROAD MARKET AND COOKED FOOD CENTRE,14,HAIG ROAD,HAIG ROAD MARKET AND COOKED FOOD CENTRE,14 HAIG ROAD HAIG ROAD MARKET AND COOKED FOOD CENTRE SINGAPORE 430014,430014,34917.8845853359,33078.6270667985,1.31542509324914,103.895479253328,103.895479253328,430014
0,YUHUA VILLAGE MARKET AND FOOD CENTRE,254,JURONG EAST STREET 24,YUHUA VILLAGE MARKET AND FOOD CENTRE,254 JURONG EAST STREET 24 YUHUA VILLAGE MARKET AND FOOD CENTRE SINGAPORE 600254,600254,17362.9648318021,36181.8218899667,1.34348818520494,103.73773841183,103.73773841183,600254
0,ABC BRICKWORKS MARKET & FOOD CENTRE,6,JALAN BUKIT MERAH,ABC BRICKWORKS MARKET & FOOD CENTRE,6 JALAN BUKIT MERAH ABC BRICKWORKS MARKET & FOOD CENTRE SINGAPORE 150006,150006,25196.8643863667,29922.5141526069,1.28688297261475,103.808131274161,103.808131274161,150006
1,DBS ABC BRICKWORKS FOOD CENTRE,6,JALAN BUKIT MERAH,DBS ABC BRICKWORKS FOOD CENTRE,6 JALAN BUKIT MERAH DBS ABC BRICKWORKS FOOD CENTRE SINGAPORE 150006,150006,25213.9566865042,29906.9551074542,1.28674226360795,103.808284856741,103.808284856741,150006
2,UOB JALAN BUKIT MERAH,6,JALAN BUKIT MERAH,UOB JALAN BUKIT MERAH,6 JALAN BUKIT MERAH UOB JALAN BUKIT MERAH SINGAPORE 150006,150006,25196.5006862748,29930.2297038008,1.28695274931203,103.808128005484,103.808128005484,150006
0,FENGSHAN CENTRE,85,BEDOK NORTH STREET 4,FENGSHAN CENTRE,85 BEDOK NORTH STREET 4 FENGSHAN CENTRE SINGAPORE 460085,460085,39735.4806164335,34912.0934725478,1.33200482399436,103.93876843919,103.93876843919,460085
1,UOB BEDOK NORTH STREET 4,85,BEDOK NORTH STREET 4,UOB BEDOK NORTH STREET 4,85 BEDOK NORTH STREET 4 UOB BEDOK NORTH STREET 4 SINGAPORE 460085,460085,39738.3317091595,34915.0163911991,1.33203125668687,103.938794058948,103.938794058948,460085
0,ALBERT CENTRE,270,QUEEN STREET,ALBERT CENTRE,270 QUEEN STREET ALBERT CENTRE SINGAPORE 180270,180270,30314.5408401964,31494.7782710623,1.30110201573423,103.854115779087,103.854115779087,180270
1,ALBERT CENTRE MARKET & FOOD CENTRE,270,QUEEN STREET,ALBERT CENTRE MARKET & FOOD CENTRE,270 QUEEN STREET ALBERT CENTRE MARKET & FOOD CENTRE SINGAPORE 180270,180270,30325.2105163326,31483.6634436883,1.30100149635856,103.854211650138,103.854211650138,180270
0,AMOY STREET FOOD CENTRE,7,MAXWELL ROAD,AMOY STREET FOOD CENTRE,7 MAXWELL ROAD AMOY STREET FOOD CENTRE SINGAPORE 069111,069111,29483.955767219,29088.4261356071,1.2793398636571,103.846652482254,103.846652482254,069111
1,MND COMPLEX,7,MAXWELL ROAD,MND COMPLEX,7 MAXWELL ROAD MND COMPLEX SINGAPORE 069111,069111,29433.1499879742,29089.9773092363,1.27935389427121,103.846195973221,103.846195973221,069111
2,MND COMPLEX (ANNEXE B),7,MAXWELL ROAD,MND COMPLEX (ANNEXE B),7 MAXWELL ROAD MND COMPLEX (ANNEXE B) SINGAPORE 069111,069111,29480.2600161387,29076.4117437582,1.27923120988439,103.846619273977,103.846619273977,069111
3,OCBC AMOY STREET FOOD CENTRE,7,MAXWELL ROAD,OCBC AMOY STREET FOOD CENTRE,7 MAXWELL ROAD OCBC AMOY STREET FOOD CENTRE SINGAPORE 069111,069111,29480.2599858707,29076.4117134903,1.27923120961067,103.846619273705,103.846619273705,069111
4,DBS AMOY STREET FOOD CENTRE,7,MAXWELL ROAD,DBS AMOY STREET FOOD CENTRE,7 MAXWELL ROAD DBS AMOY STREET FOOD CENTRE SINGAPORE 069111,069111,29480.2599858707,29076.4117134903,1.27923120961067,103.846619273705,103.846619273705,069111
5,KINDERLAND PRESCHOOL,7,MAXWELL ROAD,KINDERLAND PRESCHOOL,7 MAXWELL ROAD KINDERLAND PRESCHOOL SINGAPORE 069111,069111,29478.8787972378,29075.005190555,1.2792184895752,103.846606863139,103.846606863139,069111
0,CHONG BOON MARKET AND FOOD CENTRE,453A,ANG MO KIO AVENUE 10,CHONG BOON MARKET AND FOOD CENTRE,453A ANG MO KIO AVENUE 10 CHONG BOON MARKET AND FOOD CENTRE SINGAPORE 561453,561453,30564.4165150356,38919.4167297166,1.3682477887765,103.856361649863,103.856361649863,561453
1,DBS ANG MO KIO AVENUE 10,453A,ANG MO KIO AVENUE 10,DBS ANG MO KIO AVENUE 10,453A ANG MO KIO AVENUE 10 DBS ANG MO KIO AVENUE 10 SINGAPORE 561453,561453,30563.2833119929,38918.6149005592,1.36824053741879,103.856351467175,103.856351467175,561453
0,OCBC GOLDEN MILE FOOD CENTRE,505,BEACH ROAD,OCBC GOLDEN MILE FOOD CENTRE,505 BEACH ROAD OCBC GOLDEN MILE FOOD CENTRE SINGAPORE 199583,199583,31400.915104527,31720.3067127466,1.30314151533241,103.863877368653,103.863877368653,199583
1,GOLDEN MILE FOOD CENTRE,505,BEACH ROAD,GOLDEN MILE FOOD CENTRE,505 BEACH ROAD GOLDEN MILE FOOD CENTRE SINGAPORE 199583,199583,31400.9425575882,31720.3330156244,1.30314175320333,103.863877615334,103.863877615334,199583
2,UOB GOLDEN MILE FOOD CENTRE,505,BEACH ROAD,UOB GOLDEN MILE FOOD CENTRE,505 BEACH ROAD UOB GOLDEN MILE FOOD CENTRE SINGAPORE 199583,199583,31400.915104527,31720.3067127466,1.30314151533241,103.863877368653,103.863877368653,199583
0,DBS TAMAN JURONG MARKET & FOOD CENTRE,3,YUNG SHENG ROAD,DBS TAMAN JURONG MARKET & FOOD CENTRE,3 YUNG SHENG ROAD DBS TAMAN JURONG MARKET & FOOD CENTRE SINGAPORE 618499,618499,15569.0315909274,35208.2267080583,1.33468266452814,103.721619258973,103.721619258973,618499
1,TAMAN JURONG MARKET & FOOD CENTRE,3,YUNG SHENG ROAD,TAMAN JURONG MARKET & FOOD CENTRE,3 YUNG SHENG ROAD TAMAN JURONG MARKET & FOOD CENTRE SINGAPORE 618499,618499,15565.0852814792,35212.4731548335,1.3347210661928,103.721583797451,103.721583797451,618499
0,HOLLAND VILLAGE MARKET & FOOD CENTRE,1,LORONG MAMBONG,HOLLAND VILLAGE MARKET & FOOD CENTRE,1 LORONG MAMBONG HOLLAND VILLAGE MARKET & FOOD CENTRE SINGAPORE 277700,277700,23721.7508704271,32597.3388542421,1.31107297402127,103.794876419662,103.794876419662,277700
0,DBS TIONG BAHRU MARKET,30,SENG POH ROAD,DBS TIONG BAHRU MARKET,30 SENG POH ROAD DBS TIONG BAHRU MARKET SINGAPORE 168898,168898,27900.1698986189,29679.5695130918,1.28468599168094,103.832421566287,103.832421566287,168898
1,TIONG BAHRU MARKET,30,SENG POH ROAD,TIONG BAHRU MARKET,30 SENG POH ROAD TIONG BAHRU MARKET SINGAPORE 168898,168898,27873.4577370929,29690.5834875423,1.28478559810371,103.832181546885,103.832181546885,168898
0,MARKET & HAWKER CENTRE (BLK 724 ANG MO KIO AVE 6),724,ANG MO KIO AVENUE 6,MARKET & HAWKER CENTRE (BLK 724 ANG MO KIO AVE 6),724 ANG MO KIO AVENUE 6 MARKET & HAWKER CENTRE (BLK 724 ANG MO KIO AVE 6) SINGAPORE 560724,560724,29468.07854502,39353.3925121035,1.37217258545171,103.846510310202,103.846510310202,560724
0,DBS TOA PAYOH LORONG 1-127,127,LORONG 1 TOA PAYOH,DBS TOA PAYOH LORONG 1-127,127 LORONG 1 TOA PAYOH DBS TOA PAYOH LORONG 1-127 SINGAPORE 310127,310127,29270.4060919667,35579.8757177517,1.33804625287728,103.844733922883,103.844733922883,310127
1,TOA PAYOH WEST MARKET AND FOOD COURT,127,LORONG 1 TOA PAYOH,TOA PAYOH WEST MARKET AND FOOD COURT,127 LORONG 1 TOA PAYOH TOA PAYOH WEST MARKET AND FOOD COURT SINGAPORE 310127,310127,29270.2729431055,35586.20741673,1.33810351452112,103.844732726726,103.844732726726,310127
0,BENDEMEER MARKET AND FOOD CENTRE,29,BENDEMEER ROAD,BENDEMEER MARKET AND FOOD CENTRE,29 BENDEMEER ROAD BENDEMEER MARKET AND FOOD CENTRE SINGAPORE 330029,330029,31305.579370317,33497.8147295769,1.31921667890113,103.863020922593,103.863020922593,330029
0,DBS BUFFALO ROAD,665,BUFFALO ROAD,DBS BUFFALO ROAD,665 BUFFALO ROAD DBS BUFFALO ROAD SINGAPORE 210665,210665,29924.52149502,32055.9469010551,1.30617705352996,103.850611312978,103.850611312978,210665
1,TEKKA MARKET,665,BUFFALO ROAD,TEKKA MARKET,665 BUFFALO ROAD TEKKA MARKET SINGAPORE 210665,210665,29924.521525288,32055.9468707871,1.30617705325622,103.85061131325,103.85061131325,210665
2,ZHUJIAO CENTRE (TEKKA MARKET),665,BUFFALO ROAD,ZHUJIAO CENTRE (TEKKA MARKET),665 BUFFALO ROAD ZHUJIAO CENTRE (TEKKA MARKET) SINGAPORE 210665,210665,29924.3737569908,32056.0217537805,1.30617773048079,103.850609985486,103.850609985486,210665
0,SEMBAWANG HILLS FOOD CENTRE,590,UPPER THOMSON ROAD,SEMBAWANG HILLS FOOD CENTRE,590 UPPER THOMSON ROAD SEMBAWANG HILLS FOOD CENTRE SINGAPORE 574419,574419,27521.4142992953,39369.6331922505,1.37231949296183,103.829018145089,103.829018145089,574419
0,OCBC MAXWELL HAWKER CENTRE,1,KADAYANALLUR STREET,OCBC MAXWELL HAWKER CENTRE,1 KADAYANALLUR STREET OCBC MAXWELL HAWKER CENTRE SINGAPORE 069184,069184,29271.9157984583,29198.0670940131,1.28033142727315,103.844747227479,103.844747227479,069184
1,MAXWELL FOOD CENTRE,1,KADAYANALLUR STREET,MAXWELL FOOD CENTRE,1 KADAYANALLUR STREET MAXWELL FOOD CENTRE SINGAPORE 069184,069184,29271.9157984583,29198.0670940131,1.28033142727315,103.844747227479,103.844747227479,069184
2,MAXWELL ROAD FOOD CENTRE,1,KADAYANALLUR STREET,MAXWELL ROAD FOOD CENTRE,1 KADAYANALLUR STREET MAXWELL ROAD FOOD CENTRE SINGAPORE 069184,069184,29241.5975396195,29220.8985670786,1.28053790831335,103.844474807265,103.844474807265,069184
3,UOB MAXWELL FOOD CENTRE,1,KADAYANALLUR STREET,UOB MAXWELL FOOD CENTRE,1 KADAYANALLUR STREET UOB MAXWELL FOOD CENTRE SINGAPORE 069184,069184,29271.9157984583,29198.0670940131,1.28033142727315,103.844747227479,103.844747227479,069184
0,MARKET & HAWKER CENTRE (BLK 16 BEDOK SOUTH ROAD ),16,BEDOK SOUTH ROAD,MARKET & HAWKER CENTRE (BLK 16 BEDOK SOUTH ROAD ),16 BEDOK SOUTH ROAD MARKET & HAWKER CENTRE (BLK 16 BEDOK SOUTH ROAD ) SINGAPORE 460016,460016,39376.1483757449,33645.7060351707,1.32055221938711,103.935539171613,103.935539171613,460016
1,MARKET & HAWKER CENTRE (BLK 16 BEDOK SOUTH ROAD),16,BEDOK SOUTH ROAD,MARKET & HAWKER CENTRE (BLK 16 BEDOK SOUTH ROAD),16 BEDOK SOUTH ROAD MARKET & HAWKER CENTRE (BLK 16 BEDOK SOUTH ROAD) SINGAPORE 460016,460016,39368.8552748002,33640.0242200717,1.32050083785242,103.935473637292,103.935473637292,460016
0,121 PASIR PANJANG ROAD SINGAPORE 118543,121,PASIR PANJANG ROAD,NIL,121 PASIR PANJANG ROAD SINGAPORE 118543,118543,23359.273816498,28685.8491790779,1.27569879325348,103.791619964293,103.791619964293,118543
1,PASIR PANJANG FOOD CENTRE,121,PASIR PANJANG ROAD,PASIR PANJANG FOOD CENTRE,121 PASIR PANJANG ROAD PASIR PANJANG FOOD CENTRE SINGAPORE 118543,118543,23336.0079675978,28710.0854800716,1.27591797439292,103.791410908656,103.791410908656,118543
0,YUHUA MARKET & HAWKER CENTRE,347,JURONG EAST AVENUE 1,YUHUA MARKET & HAWKER CENTRE,347 JURONG EAST AVENUE 1 YUHUA MARKET & HAWKER CENTRE SINGAPORE 600347,600347,16691.4017522149,36395.0704593174,1.3454164813804,103.73170393955,103.73170393955,600347
1,YUHUA MARKET AND HAWKER CENTRE,347,JURONG EAST AVENUE 1,YUHUA MARKET AND HAWKER CENTRE,347 JURONG EAST AVENUE 1 YUHUA MARKET AND HAWKER CENTRE SINGAPORE 600347,600347,16677.582026477,36383.5769189317,1.34531253284138,103.731579765339,103.731579765339,600347
0,REDHILL MARKET,79,REDHILL LANE,REDHILL MARKET,79 REDHILL LANE REDHILL MARKET SINGAPORE 150079,150079,26334.3568560705,30028.6791963,1.28784317298064,103.818352097299,103.818352097299,150079
1,DBS REDHILL LANE,79,REDHILL LANE,DBS REDHILL LANE,79 REDHILL LANE DBS REDHILL LANE SINGAPORE 150079,150079,26334.1003046408,30029.1054905821,1.2878470282227,103.818349792057,103.818349792057,150079
0,49A SERANGOON GARDEN WAY SINGAPORE 555945,49A,SERANGOON GARDEN WAY,NIL,49A SERANGOON GARDEN WAY SINGAPORE 555945,555945,31655.1041183863,38310.0531156808,1.36273680777483,103.866162163042,103.866162163042,555945
1,SERANGOON GARDEN MARKET,49A,SERANGOON GARDEN WAY,SERANGOON GARDEN MARKET,49A SERANGOON GARDEN WAY SERANGOON GARDEN MARKET SINGAPORE 555945,555945,31717.7350540459,38348.5565334801,1.36308501111104,103.866724949118,103.866724949118,555945
0,SIMS VISTA MARKET AND FOOD CENTRE,49,SIMS PLACE,SIMS VISTA MARKET AND FOOD CENTRE,49 SIMS PLACE SIMS VISTA MARKET AND FOOD CENTRE SINGAPORE 380049,380049,33118.3824592084,33256.6059891954,1.31703502375324,103.879309854774,103.879309854774,380049
0,MARKET & HAWKER CENTRE (BLKS 2 & 3 CHANGI VILLAGE ROAD),3,CHANGI VILLAGE ROAD,MARKET & HAWKER CENTRE (BLKS 2 & 3 CHANGI VILLAGE ROAD),3 CHANGI VILLAGE ROAD MARKET & HAWKER CENTRE (BLKS 2 & 3 CHANGI VILLAGE ROAD) SINGAPORE 500003,500003,45224.2667044876,41287.4388223831,1.38965834308064,103.988091826679,103.988091826679,500003
0,NORTH BRIDGE ROAD MARKET,861,NORTH BRIDGE ROAD,NORTH BRIDGE ROAD MARKET,861 NORTH BRIDGE ROAD NORTH BRIDGE ROAD MARKET SINGAPORE 198783,198783,31404.4695041236,31995.9501274824,1.30563433652207,103.863909336656,103.863909336656,198783
1,NORTH BRIDGE ROAD MARKET AND FOOD CENTRE,861,NORTH BRIDGE ROAD,NORTH BRIDGE ROAD MARKET AND FOOD CENTRE,861 NORTH BRIDGE ROAD NORTH BRIDGE ROAD MARKET AND FOOD CENTRE SINGAPORE 198783,198783,31425.6079072515,32051.9533432834,1.30614080746519,103.864099281276,103.864099281276,198783
0,TELOK BLANGAH FOOD CENTRE,79,TELOK BLANGAH DRIVE,TELOK BLANGAH FOOD CENTRE,79 TELOK BLANGAH DRIVE TELOK BLANGAH FOOD CENTRE SINGAPORE 100079,100079,25139.731720753,28426.7690406591,1.27335597437747,103.807618048888,103.807618048888,100079
1,UOB TELOK BLANGAH DRIVE,79,TELOK BLANGAH DRIVE,UOB TELOK BLANGAH DRIVE,79 TELOK BLANGAH DRIVE UOB TELOK BLANGAH DRIVE SINGAPORE 100079,100079,25140.1255980255,28427.7565941624,1.27336490550026,103.807621587927,103.807621587927,100079
0,DBS SHUNFU ROAD,320,SHUNFU ROAD,DBS SHUNFU ROAD,320 SHUNFU ROAD DBS SHUNFU ROAD SINGAPORE 570320,570320,28413.2464859849,37123.6313001141,1.35200745374218,103.837031862103,103.837031862103,570320
1,MARKET & HAWKER CENTRE (BLK 320 SHUNFU ROAD),320,SHUNFU ROAD,MARKET & HAWKER CENTRE (BLK 320 SHUNFU ROAD),320 SHUNFU ROAD MARKET & HAWKER CENTRE (BLK 320 SHUNFU ROAD) SINGAPORE 570320,570320,28413.2464859849,37123.6313303821,1.35200745401591,103.837031862103,103.837031862103,570320
2,SHUNFU MART,320,SHUNFU ROAD,SHUNFU MART,320 SHUNFU ROAD SHUNFU MART SINGAPORE 570320,570320,28405.7507711574,37125.6345260814,1.35202557030738,103.836964508353,103.836964508353,570320
0,TEBAN GARDENS MARKET AND FOOD CENTRE,37A,TEBAN GARDENS ROAD,TEBAN GARDENS MARKET AND FOOD CENTRE,37A TEBAN GARDENS ROAD TEBAN GARDENS MARKET AND FOOD CENTRE SINGAPORE 601037,601037,17920.3992703771,33676.492388377,1.32083109341424,103.742748119105,103.742748119105,601037
0,TAMPINES ROUND MARKET AND FOOD CENTRE,137,TAMPINES STREET 11,TAMPINES ROUND MARKET AND FOOD CENTRE,137 TAMPINES STREET 11 TAMPINES ROUND MARKET AND FOOD CENTRE SINGAPORE 521137,521137,40387.6812971048,36390.3618204296,1.34537347373749,103.944629422828,103.944629422828,521137
0,DBS EMPRESS ROAD,7,EMPRESS ROAD,DBS EMPRESS ROAD,7 EMPRESS ROAD DBS EMPRESS ROAD SINGAPORE 260007,260007,24919.2436853256,33169.3014104441,1.31624574394049,103.805636419935,103.805636419935,260007
1,EMPRESS ROAD MARKET AND FOOD CENTRE,7,EMPRESS ROAD,EMPRESS ROAD MARKET AND FOOD CENTRE,7 EMPRESS ROAD EMPRESS ROAD MARKET AND FOOD CENTRE SINGAPORE 260007,260007,24919.2748916168,33168.7248356231,1.31624052960518,103.805636700397,103.805636700397,260007
0,KAKI BUKIT 511 MARKET AND FOOD CENTRE,511,BEDOK NORTH STREET 3,KAKI BUKIT 511 MARKET AND FOOD CENTRE,511 BEDOK NORTH STREET 3 KAKI BUKIT 511 MARKET AND FOOD CENTRE SINGAPORE 460511,460511,38824.3551326348,35046.416730687,1.33321993297265,103.930581522776,103.930581522776,460511
0,CHOMP CHOMP FOOD CENTRE,20,KENSINGTON PARK ROAD,CHOMP CHOMP FOOD CENTRE,20 KENSINGTON PARK ROAD CHOMP CHOMP FOOD CENTRE SINGAPORE 557269,557269,31695.7058338877,38475.4424637333,1.36423252476886,103.86652701738,103.86652701738,557269
0,MARKET & HAWKER CENTRE (BLK 448 CLEMENTI AVENUE 3),448,CLEMENTI AVENUE 3,MARKET & HAWKER CENTRE (BLK 448 CLEMENTI AVENUE 3),448 CLEMENTI AVENUE 3 MARKET & HAWKER CENTRE (BLK 448 CLEMENTI AVENUE 3) SINGAPORE 120448,120448,20343.061339126,32845.8420576267,1.31331969319644,103.764517192874,103.764517192874,120448
0,MARKET & HAWKER CENTRE (BLK 216 BEDOK NORTH STREET 1),216,BEDOK NORTH STREET 1,MARKET & HAWKER CENTRE (BLK 216 BEDOK NORTH STREET 1),216 BEDOK NORTH STREET 1 MARKET & HAWKER CENTRE (BLK 216 BEDOK NORTH STREET 1) SINGAPORE 460216,460216,39117.7922474965,34365.5968239084,1.32706274205746,103.933217970746,103.933217970746,460216
0,DBS EAST COAST LAGOON FOOD VILLAGE,1220,EAST COAST PARKWAY,DBS EAST COAST LAGOON FOOD VILLAGE,1220 EAST COAST PARKWAY DBS EAST COAST LAGOON FOOD VILLAGE SINGAPORE 468960,468960,39331.5561898053,32136.743772503,1.30690573552745,103.935137935777,103.935137935777,468960
1,EAST COAST LAGOON FOOD VILLAGE,1220,EAST COAST PARKWAY,EAST COAST LAGOON FOOD VILLAGE,1220 EAST COAST PARKWAY EAST COAST LAGOON FOOD VILLAGE SINGAPORE 468960,468960,39293.9161662422,32176.0329168923,1.30726106591172,103.934799737098,103.934799737098,468960
0,ANG MO KIO 628 MARKET,628,ANG MO KIO AVENUE 4,ANG MO KIO 628 MARKET,628 ANG MO KIO AVENUE 4 ANG MO KIO 628 MARKET SINGAPORE 560628,560628,28813.4560321672,40328.11105996,1.38098761665454,103.840628087484,103.840628087484,560628
